[{"OBJECT_NAME":"FLOCK 4Q-12","OBJECT_ID":"2023-174V","EPOCH":"2026-03-09T17:55:40.777536","MEAN_MOTION":15.52068152,"ECCENTRICITY":0.00053018,"INCLINATION":97.3876,"RA_OF_ASC_NODE":157.9059,"ARG_OF_PERICENTER":154.2743,"MEAN_ANOMALY":205.8774,"EPHEMERIS_TYPE":0,"CLASSIFICATION_TYPE":"U","NORAD_CAT_ID":58275,"ELEMENT_SET_NO":999,"REV_AT_EPOCH":13040,"BSTAR":0.0013357281,"MEAN_MOTION_DOT":0.00081198,"MEAN_MOTION_DDOT":0},{"OBJECT_NAME":"BREEZE-M DEB [TANK]","OBJECT_ID":"2012-007C","EPOCH":"2026-03-08T12:22:17.460768","MEAN_MOTION":5.6976166,"ECCENTRICITY":0.49373378,"INCLINATION":49.5897,"RA_OF_ASC_NODE":91.1175,"ARG_OF_PERICENTER":54.4791,"MEAN_ANOMALY":342.266,"EPHEMERIS_TYPE":0,"CLASSIFICATION_TYPE":"U","NORAD_CAT_ID":38089,"ELEMENT_SET_NO":999,"REV_AT_EPOCH":28330,"BSTAR":0.0009491653,"MEAN_MOTION_DOT":4.146e-5,"MEAN_MOTION_DDOT":0}]
